{
  "type": "FeatureCollection",
  "features": [
    {
      "type": "Feature",
      "properties": {
        "norad_id": 38474,
        "name": "IRIDIUM 33 DEB",
        "group": "iridium-33-debris",
        "lat": 23.332111289921322,
        "lon": -175.37192893589554,
        "alt_km": 725.0074114821427,
        "timestamp": "2025-12-21T14:40:48.304209+00:00",
        "meta_object_name": "IRIDIUM 33 DEB",
        "meta_object_id": "1997-051AAB",
        "meta_epoch": "2025-12-19T07:20:05.894592",
        "meta_mean_motion": 14.50712379,
        "meta_eccentricity": 0.0027817,
        "meta_inclination": 86.3489,
        "meta_ra_of_asc_node": 7.2093,
        "meta_arg_of_pericenter": 68.0282,
        "meta_mean_anomaly": 292.3875,
        "meta_ephemeris_type": 0,
        "meta_classification_type": "U",
        "meta_norad_cat_id": 38474,
        "meta_element_set_no": 999,
        "meta_rev_at_epoch": 65413,
        "meta_bstar": 0.00035872,
        "meta_mean_motion_dot": 1.437e-05,
        "meta_mean_motion_ddot": 0,
        "tle_line1": "1 38474U 97051AAB 25353.30562378  .00001437  00000+0  35872-3 0  9992",
        "tle_line2": "2 38474  86.3489   7.2093 0027817  68.0282 292.3875 14.50712379654132"
      },
      "geometry": {
        "type": "Point",
        "coordinates": [
          -175.37192893589554,
          23.332111289921322
        ]
      }
    },
    {
      "type": "Feature",
      "properties": {
        "norad_id": 39777,
        "name": "IRIDIUM 33 DEB",
        "group": "iridium-33-debris",
        "lat": 27.83221281884927,
        "lon": 172.87455165929487,
        "alt_km": 729.5079378920045,
        "timestamp": "2025-12-21T14:40:48.304220+00:00",
        "meta_object_name": "IRIDIUM 33 DEB",
        "meta_object_id": "1997-051AAJ",
        "meta_epoch": "2025-12-17T11:37:29.440128",
        "meta_mean_motion": 14.56536598,
        "meta_eccentricity": 0.00601884,
        "meta_inclination": 85.9622,
        "meta_ra_of_asc_node": 172.7412,
        "meta_arg_of_pericenter": 170.5587,
        "meta_mean_anomaly": 189.6768,
        "meta_ephemeris_type": 0,
        "meta_classification_type": "U",
        "meta_norad_cat_id": 39777,
        "meta_element_set_no": 999,
        "meta_rev_at_epoch": 60254,
        "meta_bstar": 0.0020288102,
        "meta_mean_motion_dot": 9.279e-05,
        "meta_mean_motion_ddot": 0,
        "tle_line1": "1 39777U 97051AAJ 25351.48436852  .00009279  00000+0  20288-2 0  9999",
        "tle_line2": "2 39777  85.9622 172.7412 0060188 170.5587 189.6768 14.56536598602541"
      },
      "geometry": {
        "type": "Point",
        "coordinates": [
          172.87455165929487,
          27.83221281884927
        ]
      }
    },
    {
      "type": "Feature",
      "properties": {
        "norad_id": 39778,
        "name": "IRIDIUM 33 DEB",
        "group": "iridium-33-debris",
        "lat": 27.720535846886115,
        "lon": -142.53359161714727,
        "alt_km": 714.2668272701139,
        "timestamp": "2025-12-21T14:40:48.304230+00:00",
        "meta_object_name": "IRIDIUM 33 DEB",
        "meta_object_id": "1997-051AAK",
        "meta_epoch": "2025-12-20T09:54:38.464416",
        "meta_mean_motion": 14.5431023,
        "meta_eccentricity": 0.00071263,
        "meta_inclination": 86.377,
        "meta_ra_of_asc_node": 39.8947,
        "meta_arg_of_pericenter": 18.2165,
        "meta_mean_anomaly": 341.9295,
        "meta_ephemeris_type": 0,
        "meta_classification_type": "U",
        "meta_norad_cat_id": 39778,
        "meta_element_set_no": 999,
        "meta_rev_at_epoch": 60804,
        "meta_bstar": 0.00053344966,
        "meta_mean_motion_dot": 2.283e-05,
        "meta_mean_motion_ddot": 0,
        "tle_line1": "1 39778U 97051AAK 25354.41294519  .00002283  00000+0  53345-3 0  9997",
        "tle_line2": "2 39778  86.3770  39.8947 0007126  18.2165 341.9295 14.54310230608040"
      },
      "geometry": {
        "type": "Point",
        "coordinates": [
          -142.53359161714727,
          27.720535846886115
        ]
      }
    },
    {
      "type": "Feature",
      "properties": {
        "norad_id": 39781,
        "name": "IRIDIUM 33 DEB",
        "group": "iridium-33-debris",
        "lat": -80.11419851663364,
        "lon": -127.02957750876338,
        "alt_km": 725.8330159194338,
        "timestamp": "2025-12-21T14:40:48.304241+00:00",
        "meta_object_name": "IRIDIUM 33 DEB",
        "meta_object_id": "1997-051AAN",
        "meta_epoch": "2025-12-20T00:15:44.286336",
        "meta_mean_motion": 14.2080867,
        "meta_eccentricity": 0.01741047,
        "meta_inclination": 86.3716,
        "meta_ra_of_asc_node": 254.9822,
        "meta_arg_of_pericenter": 249.9468,
        "meta_mean_anomaly": 125.5554,
        "meta_ephemeris_type": 0,
        "meta_classification_type": "U",
        "meta_norad_cat_id": 39781,
        "meta_element_set_no": 999,
        "meta_rev_at_epoch": 8210,
        "meta_bstar": 0.0030068331,
        "meta_mean_motion_dot": 7.585e-05,
        "meta_mean_motion_ddot": 0,
        "tle_line1": "1 39781U 97051AAN 25354.01092924  .00007585  00000+0  30068-2 0  9999",
        "tle_line2": "2 39781  86.3716 254.9822 0174104 249.9468 125.5554 14.20808670 82106"
      },
      "geometry": {
        "type": "Point",
        "coordinates": [
          -127.02957750876338,
          -80.11419851663364
        ]
      }
    },
    {
      "type": "Feature",
      "properties": {
        "norad_id": 40996,
        "name": "IRIDIUM 33 DEB",
        "group": "iridium-33-debris",
        "lat": -16.442301640998412,
        "lon": -3.8168293897610357,
        "alt_km": 577.4007277835217,
        "timestamp": "2025-12-21T14:40:48.304252+00:00",
        "meta_object_name": "IRIDIUM 33 DEB",
        "meta_object_id": "1997-051ABJ",
        "meta_epoch": "2025-12-21T06:48:04.269600",
        "meta_mean_motion": 14.9672554,
        "meta_eccentricity": 0.001126,
        "meta_inclination": 86.3507,
        "meta_ra_of_asc_node": 357.4159,
        "meta_arg_of_pericenter": 39.2145,
        "meta_mean_anomaly": 336.8251,
        "meta_ephemeris_type": 0,
        "meta_classification_type": "U",
        "meta_norad_cat_id": 40996,
        "meta_element_set_no": 999,
        "meta_rev_at_epoch": 62616,
        "meta_bstar": 0.0023807657,
        "meta_mean_motion_dot": 0.00027327,
        "meta_mean_motion_ddot": 0,
        "tle_line1": "1 40996U 97051ABJ 25355.28338275  .00027327  00000+0  23808-2 0  9991",
        "tle_line2": "2 40996  86.3507 357.4159 0011260  39.2145 336.8251 14.96725540626169"
      },
      "geometry": {
        "type": "Point",
        "coordinates": [
          -3.8168293897610357,
          -16.442301640998412
        ]
      }
    },
    {
      "type": "Feature",
      "properties": {
        "norad_id": 40998,
        "name": "IRIDIUM 33 DEB",
        "group": "iridium-33-debris",
        "lat": -58.805381904908316,
        "lon": -124.13609878321861,
        "alt_km": 755.3683187527377,
        "timestamp": "2025-12-21T14:40:48.304262+00:00",
        "meta_object_name": "IRIDIUM 33 DEB",
        "meta_object_id": "1997-051ABL",
        "meta_epoch": "2025-12-19T22:16:12.052992",
        "meta_mean_motion": 14.4511921,
        "meta_eccentricity": 0.000918,
        "meta_inclination": 86.3822,
        "meta_ra_of_asc_node": 50.5853,
        "meta_arg_of_pericenter": 65.4089,
        "meta_mean_anomaly": 59.4922,
        "meta_ephemeris_type": 0,
        "meta_classification_type": "U",
        "meta_norad_cat_id": 40998,
        "meta_element_set_no": 999,
        "meta_rev_at_epoch": 6785,
        "meta_bstar": 0.00031233,
        "meta_mean_motion_dot": 1.112e-05,
        "meta_mean_motion_ddot": 0,
        "tle_line1": "1 40998U 97051ABL 25353.92791728  .00001112  00000+0  31233-3 0  9994",
        "tle_line2": "2 40998  86.3822  50.5853 0009180  65.4089  59.4922 14.45119210 67852"
      },
      "geometry": {
        "type": "Point",
        "coordinates": [
          -124.13609878321861,
          -58.805381904908316
        ]
      }
    },
    {
      "type": "Feature",
      "properties": {
        "norad_id": 46435,
        "name": "IRIDIUM 33 DEB",
        "group": "iridium-33-debris",
        "lat": 66.6402715772951,
        "lon": -161.21361727320394,
        "alt_km": 924.2273728647033,
        "timestamp": "2025-12-21T14:40:48.304272+00:00",
        "meta_object_name": "IRIDIUM 33 DEB",
        "meta_object_id": "1997-051ABN",
        "meta_epoch": "2025-12-13T20:22:29.882208",
        "meta_mean_motion": 14.32399442,
        "meta_eccentricity": 0.0208315,
        "meta_inclination": 86.2839,
        "meta_ra_of_asc_node": 193.4722,
        "meta_arg_of_pericenter": 272.7642,
        "meta_mean_anomaly": 103.0816,
        "meta_ephemeris_type": 0,
        "meta_classification_type": "U",
        "meta_norad_cat_id": 46435,
        "meta_element_set_no": 999,
        "meta_rev_at_epoch": 7932,
        "meta_bstar": 0.009141333,
        "meta_mean_motion_dot": 0.00031559,
        "meta_mean_motion_ddot": 0,
        "tle_line1": "1 46435U 97051ABN 25347.84895697  .00031559  00000+0  91413-2 0  9993",
        "tle_line2": "2 46435  86.2839 193.4722 0208315 272.7642 103.0816 14.32399442 79328"
      },
      "geometry": {
        "type": "Point",
        "coordinates": [
          -161.21361727320394,
          66.6402715772951
        ]
      }
    }
  ]
}